{"type": "FeatureCollection", "features": [{"type": "Feature", "properties": {"norad_id": 25590, "name": "COSMOS 2361", "group": "musson", "lat": -57.68087354447435, "lon": 170.77453725133773, "alt_km": 973.2202064638141, "timestamp": "2025-12-18T23:35:49.329983+00:00", "meta": {"OBJECT_NAME": "COSMOS 2361", "OBJECT_ID": "1998-076A", "EPOCH": "2025-12-18T12:31:55.312608", "MEAN_MOTION": 13.73218258, "ECCENTRICITY": 0.00301261, "INCLINATION": 82.934, "RA_OF_ASC_NODE": 339.8093, "ARG_OF_PERICENTER": 248.8385, "MEAN_ANOMALY": 231.6147, "EPHEMERIS_TYPE": 0, "CLASSIFICATION_TYPE": "U", "NORAD_CAT_ID": 25590, "ELEMENT_SET_NO": 999, "REV_AT_EPOCH": 35190, "BSTAR": 5.9899112e-05, "MEAN_MOTION_DOT": 7e-07, "MEAN_MOTION_DDOT": 0}, "tle": {"line1": "1 25590U 98076A   25352.52216797  .00000070  00000+0  59899-4 0  9997", "line2": "2 25590  82.9340 339.8093 0030126 248.8385 231.6147 13.73218258351906"}}, "geometry": {"type": "Point", "coordinates": [170.77453725133773, -57.68087354447435]}}, {"type": "Feature", "properties": {"norad_id": 26818, "name": "COSMOS 2378", "group": "musson", "lat": -27.903676105708797, "lon": -8.674528083893566, "alt_km": 1010.1298211846206, "timestamp": "2025-12-18T23:35:49.330007+00:00", "meta": {"OBJECT_NAME": "COSMOS 2378", "OBJECT_ID": "2001-023A", "EPOCH": "2025-12-18T13:50:24.184320", "MEAN_MOTION": 13.74142495, "ECCENTRICITY": 0.00327551, "INCLINATION": 82.927, "RA_OF_ASC_NODE": 355.3965, "ARG_OF_PERICENTER": 188.4523, "MEAN_ANOMALY": 293.3088, "EPHEMERIS_TYPE": 0, "CLASSIFICATION_TYPE": "U", "NORAD_CAT_ID": 26818, "ELEMENT_SET_NO": 999, "REV_AT_EPOCH": 23003, "BSTAR": 4.2240019e-05, "MEAN_MOTION_DOT": 5.5e-07, "MEAN_MOTION_DDOT": 0}, "tle": {"line1": "1 26818U 01023A   25352.57666880  .00000055  00000+0  42240-4 0  9999", "line2": "2 26818  82.9270 355.3965 0032755 188.4523 293.3088 13.74142495230035"}}, "geometry": {"type": "Point", "coordinates": [-8.674528083893566, -27.903676105708797]}}, {"type": "Feature", "properties": {"norad_id": 27436, "name": "COSMOS 2389", "group": "musson", "lat": -21.539293539054967, "lon": 125.16215518726388, "alt_km": 1018.6975228134452, "timestamp": "2025-12-18T23:35:49.330020+00:00", "meta": {"OBJECT_NAME": "COSMOS 2389", "OBJECT_ID": "2002-026A", "EPOCH": "2025-12-18T09:12:05.944032", "MEAN_MOTION": 13.75155276, "ECCENTRICITY": 0.00474528, "INCLINATION": 82.9507, "RA_OF_ASC_NODE": 302.8067, "ARG_OF_PERICENTER": 45.3996, "MEAN_ANOMALY": 68.2863, "EPHEMERIS_TYPE": 0, "CLASSIFICATION_TYPE": "U", "NORAD_CAT_ID": 27436, "ELEMENT_SET_NO": 999, "REV_AT_EPOCH": 18226, "BSTAR": 3.6337558e-05, "MEAN_MOTION_DOT": 5.1e-07, "MEAN_MOTION_DDOT": 0}, "tle": {"line1": "1 27436U 02026A   25352.38340213  .00000051  00000+0  36338-4 0  9995", "line2": "2 27436  82.9507 302.8067 0047452  45.3996  68.2863 13.75155276182263"}}, "geometry": {"type": "Point", "coordinates": [125.16215518726388, -21.539293539054967]}}, {"type": "Feature", "properties": {"norad_id": 27818, "name": "COSMOS 2398", "group": "musson", "lat": 82.69557826721204, "lon": 13.165898784386975, "alt_km": 959.4685188807216, "timestamp": "2025-12-18T23:35:49.330033+00:00", "meta": {"OBJECT_NAME": "COSMOS 2398", "OBJECT_ID": "2003-023A", "EPOCH": "2025-12-18T07:59:58.801344", "MEAN_MOTION": 13.72386231, "ECCENTRICITY": 0.00327309, "INCLINATION": 82.9484, "RA_OF_ASC_NODE": 268.5765, "ARG_OF_PERICENTER": 96.8378, "MEAN_ANOMALY": 26.0365, "EPHEMERIS_TYPE": 0, "CLASSIFICATION_TYPE": "U", "NORAD_CAT_ID": 27818, "ELEMENT_SET_NO": 999, "REV_AT_EPOCH": 12893, "BSTAR": 3.6678027e-05, "MEAN_MOTION_DOT": 4.9e-07, "MEAN_MOTION_DDOT": 0}, "tle": {"line1": "1 27818U 03023A   25352.33331946  .00000049  00000+0  36678-4 0  9999", "line2": "2 27818  82.9484 268.5765 0032730  96.8378  26.0365 13.72386231128939"}}, "geometry": {"type": "Point", "coordinates": [13.165898784386975, 82.69557826721204]}}, {"type": "Feature", "properties": {"norad_id": 28380, "name": "COSMOS 2407", "group": "musson", "lat": 15.404158213018485, "lon": -149.7788112490986, "alt_km": 950.3737352500148, "timestamp": "2025-12-18T23:35:49.330044+00:00", "meta": {"OBJECT_NAME": "COSMOS 2407", "OBJECT_ID": "2004-028A", "EPOCH": "2025-12-18T14:51:07.717248", "MEAN_MOTION": 13.76314323, "ECCENTRICITY": 0.00400807, "INCLINATION": 82.9599, "RA_OF_ASC_NODE": 208.5399, "ARG_OF_PERICENTER": 38.8403, "MEAN_ANOMALY": 332.6267, "EPHEMERIS_TYPE": 0, "CLASSIFICATION_TYPE": "U", "NORAD_CAT_ID": 28380, "ELEMENT_SET_NO": 999, "REV_AT_EPOCH": 7504, "BSTAR": 6.0586236e-05, "MEAN_MOTION_DOT": 7.5e-07, "MEAN_MOTION_DDOT": 0}, "tle": {"line1": "1 28380U 04028A   25352.61883932  .00000075  00000+0  60586-4 0  9992", "line2": "2 28380  82.9599 208.5399 0040080  38.8403 332.6267 13.76314323 75047"}}, "geometry": {"type": "Point", "coordinates": [-149.7788112490986, 15.404158213018485]}}, {"type": "Feature", "properties": {"norad_id": 28521, "name": "COSMOS 2414", "group": "musson", "lat": 0.08210999562284009, "lon": -0.07157105219194665, "alt_km": 922.6269335974221, "timestamp": "2025-12-18T23:35:49.330061+00:00", "meta": {"OBJECT_NAME": "COSMOS 2414", "OBJECT_ID": "2005-002A", "EPOCH": "2025-12-18T14:05:10.269888", "MEAN_MOTION": 13.87903728, "ECCENTRICITY": 0.00412012, "INCLINATION": 82.9489, "RA_OF_ASC_NODE": 180.2383, "ARG_OF_PERICENTER": 123.393, "MEAN_ANOMALY": 237.1186, "EPHEMERIS_TYPE": 0, "CLASSIFICATION_TYPE": "U", "NORAD_CAT_ID": 28521, "ELEMENT_SET_NO": 999, "REV_AT_EPOCH": 5876, "BSTAR": 5.0625531e-05, "MEAN_MOTION_DOT": 7.7e-07, "MEAN_MOTION_DDOT": 0}, "tle": {"line1": "1 28521U 05002A   25352.58692442  .00000077  00000+0  50626-4 0  9998", "line2": "2 28521  82.9489 180.2383 0041201 123.3930 237.1186 13.87903728 58766"}}, "geometry": {"type": "Point", "coordinates": [-0.07157105219194665, 0.08210999562284009]}}, {"type": "Feature", "properties": {"norad_id": 32052, "name": "COSMOS 2429", "group": "musson", "lat": 26.850627861481556, "lon": -17.718083870756793, "alt_km": 951.5757553394424, "timestamp": "2025-12-18T23:35:49.330084+00:00", "meta": {"OBJECT_NAME": "COSMOS 2429", "OBJECT_ID": "2007-038A", "EPOCH": "2025-12-18T11:14:35.224800", "MEAN_MOTION": 13.75149979, "ECCENTRICITY": 0.00389306, "INCLINATION": 82.9804, "RA_OF_ASC_NODE": 339.0852, "ARG_OF_PERICENTER": 22.1722, "MEAN_ANOMALY": 338.1107, "EPHEMERIS_TYPE": 0, "CLASSIFICATION_TYPE": "U", "NORAD_CAT_ID": 32052, "ELEMENT_SET_NO": 999, "REV_AT_EPOCH": 91681, "BSTAR": 4.8234781e-05, "MEAN_MOTION_DOT": 6.2e-07, "MEAN_MOTION_DDOT": 0}, "tle": {"line1": "1 32052U 07038A   25352.46846325  .00000062  00000+0  48235-4 0  9998", "line2": "2 32052  82.9804 339.0852 0038930  22.1722 338.1107 13.75149979916817"}}, "geometry": {"type": "Point", "coordinates": [-17.718083870756793, 26.850627861481556]}}, {"type": "Feature", "properties": {"norad_id": 35635, "name": "COSMOS 2454", "group": "musson", "lat": -81.41153071131852, "lon": 108.95375177663915, "alt_km": 947.9466155796499, "timestamp": "2025-12-18T23:35:49.330102+00:00", "meta": {"OBJECT_NAME": "COSMOS 2454", "OBJECT_ID": "2009-039A", "EPOCH": "2025-12-18T13:57:55.612224", "MEAN_MOTION": 13.89929378, "ECCENTRICITY": 0.00202992, "INCLINATION": 82.9553, "RA_OF_ASC_NODE": 164.2161, "ARG_OF_PERICENTER": 58.1377, "MEAN_ANOMALY": 9.9997, "EPHEMERIS_TYPE": 0, "CLASSIFICATION_TYPE": "U", "NORAD_CAT_ID": 35635, "ELEMENT_SET_NO": 999, "REV_AT_EPOCH": 83231, "BSTAR": 4.3956827e-05, "MEAN_MOTION_DOT": 7e-07, "MEAN_MOTION_DDOT": 0}, "tle": {"line1": "1 35635U 09039A   25352.58189366  .00000070  00000+0  43957-4 0  9994", "line2": "2 35635  82.9553 164.2161 0020299  58.1377   9.9997 13.89929378832319"}}, "geometry": {"type": "Point", "coordinates": [108.95375177663915, -81.41153071131852]}}, {"type": "Feature", "properties": {"norad_id": 36519, "name": "COSMOS 2463", "group": "musson", "lat": -81.34962898217238, "lon": -103.5681219291732, "alt_km": 975.523044700225, "timestamp": "2025-12-18T23:35:49.330114+00:00", "meta": {"OBJECT_NAME": "COSMOS 2463", "OBJECT_ID": "2010-017A", "EPOCH": "2025-12-18T14:06:06.816960", "MEAN_MOTION": 13.71649688, "ECCENTRICITY": 0.00347403, "INCLINATION": 82.9606, "RA_OF_ASC_NODE": 22.4152, "ARG_OF_PERICENTER": 271.2248, "MEAN_ANOMALY": 201.2621, "EPHEMERIS_TYPE": 0, "CLASSIFICATION_TYPE": "U", "NORAD_CAT_ID": 36519, "ELEMENT_SET_NO": 999, "REV_AT_EPOCH": 78317, "BSTAR": 6.2664974e-05, "MEAN_MOTION_DOT": 7.1e-07, "MEAN_MOTION_DDOT": 0}, "tle": {"line1": "1 36519U 10017A   25352.58757890  .00000071  00000+0  62665-4 0  9995", "line2": "2 36519  82.9606  22.4152 0034740 271.2248 201.2621 13.71649688783170"}}, "geometry": {"type": "Point", "coordinates": [-103.5681219291732, -81.34962898217238]}}]}